IRIDIUM 159             
1 43578U 18061K   25341.20326398  .00000458  00000+0  15644-3 0  9990
2 43578  86.3977 136.9796 0001992  87.3806 272.7618 14.34219694385869
IRIDIUM 180             
1 43922U 19002A   25341.27253340  .00000284  00000+0  94232-4 0  9990
2 43922  86.3965  73.8268 0002004  92.7699 267.3727 14.34216524361489
IRIDIUM 176             
1 43923U 19002B   25341.15020910  .00001851  00000+0  28950-3 0  9997
2 43923  86.6088  73.8491 0002186  99.2643 260.8822 14.72262057370993
IRIDIUM 168             
1 43924U 19002C   25341.26618959  .00000076  00000+0  20025-4 0  9990
2 43924  86.3971  73.9012 0001992  96.1270 264.0153 14.34218533361461
IRIDIUM 173             
1 43925U 19002D   25340.97442796  .00000547  00000+0  18813-3 0  9996
2 43925  86.3965  73.9198 0001884  99.6050 260.5359 14.34216382361407
IRIDIUM 169             
1 43926U 19002E   25341.20875788  .00000723  00000+0  22975-3 0  9995
2 43926  86.4217 105.4725 0001554 129.7147 230.4188 14.38613616362628
IRIDIUM 172             
1 43927U 19002F   25341.17739305  .00000212  00000+0  68653-4 0  9993
2 43927  86.3964  73.8423 0001988  91.4196 268.7227 14.34215724361441
IRIDIUM 175             
1 43928U 19002G   25341.28141714  .00001697  00000+0  26524-3 0  9995
2 43928  86.1506  16.5089 0003105  98.5528 261.6041 14.72246194371000
